STARLINK-2022           
1 47643U 21012Z   23233.50722693  .00012379  00000+0  84820-3 0  9993
2 47643  53.0518 271.8640 0001254  72.4664 287.6462 15.06412078139391
